NORAD_CAT_ID,OBJECT_NAME,OBJECT_TYPE,EPOCH,MEAN_MOTION,ECCENTRICITY,INCLINATION,RA_OF_ASC_NODE,ARG_OF_PERICENTER,MEAN_ANOMALY,BSTAR,MEAN_MOTION_DOT,MEAN_MOTION_DDOT,TLE_LINE0,TLE_LINE1,TLE_LINE2,SEMIMAJOR_AXIS,PERIOD,APOGEE,PERIGEE,DECAYED
53776.0,STARLINK-4708,PAYLOAD,2022-10-23 22:00:00,15.50150033,0.0001183,53.2166,55.8735,43.1277,248.2961,-0.015371,-0.00807818,0.0,0 STARLINK-4708,1 53776U 22111D   22296.91667824 -.00807818  00000-0 -15371-1 0  9991,2 53776  53.2166  55.8735 0001183  43.1277 248.2961 15.50150033  1302,6794.425,92.894,417.093,415.486,0.0
53776.0,STARLINK-4708,PAYLOAD,2022-10-24 06:00:00,15.49624226,0.0001239,53.2173,54.2791,43.8771,308.4312,-0.019996,-0.01024296,0.0,0 STARLINK-4708,1 53776U 22111D   22297.25001157 -.01024296  00000-0 -19996-1 0  9999,2 53776  53.2173  54.2791 0001239  43.8771 308.4312 15.49624226  6710,6795.9609999999975,92.926,418.669,416.984,0.0
53776.0,STARLINK-4708,PAYLOAD,2022-10-24 14:00:01,15.48848923,0.0001333,53.2174,52.68899999999999,45.9462,6.5354,-0.021691,-0.01075784,0.0,0 STARLINK-4708,1 53776U 22111D   22297.58334491 -.01075784  00000-0 -21691-1 0  9998,2 53776  53.2174  52.6890 0001333  45.9462   6.5354 15.48848923  6777,6798.229,92.972,421.0,419.18800000000016,0.0
53776.0,STARLINK-4708,PAYLOAD,2022-10-24 22:00:00,15.48085495,0.0001476,53.2168,51.0992,48.1478,63.5268,-0.023893,-0.01163092,0.0,0 STARLINK-4708,1 53776U 22111D   22297.91667824 -.01163092  00000-0 -23893-1 0  9990,2 53776  53.2168  51.0992 0001476  48.1478  63.5268 15.48085495  1304,6800.464,93.018,423.333,421.325,0.0
53776.0,STARLINK-4708,PAYLOAD,2022-10-25 06:00:00,15.47258865,0.0001503,53.2173,49.5101,53.5642,116.3544,-0.024187,-0.01145413,0.0,0 STARLINK-4708,1 53776U 22111D   22298.25001157 -.01145413  00000-0 -24187-1 0  9993,2 53776  53.2173  49.5101 0001503  53.5642 116.3544 15.47258865  6871,6802.886,93.068,425.773,423.728,0.0
53776.0,STARLINK-4708,PAYLOAD,2022-10-25 14:00:01,15.46467179,0.0001289,53.2173,47.9258,65.0905,162.0763,-0.02558,-0.01175521,0.0,0 STARLINK-4708,1 53776U 22111D   22298.58334491 -.01175521  00000-0 -25580-1 0  9990,2 53776  53.2173  47.9258 0001289  65.0905 162.0763 15.46467179  1300,6805.206999999999,93.115,427.95,426.195,0.0
53776.0,STARLINK-4708,PAYLOAD,2022-10-25 22:00:01,15.45650971,0.0001343,53.2168,46.3417,48.2925,235.2221,-0.0262519999999999,-0.01173021,0.0,0 STARLINK-4708,1 53776U 22111D   22298.91668981 -.01173021  00000-0 -26252-1 0  9991,2 53776  53.2168  46.3417 0001343  48.2925 235.2221 15.45650971  1305,6807.603,93.165,430.382,428.554,0.0
53776.0,STARLINK-4708,PAYLOAD,2022-10-26 06:00:00,15.44815151,0.0001278,53.2173,44.7586,52.5316,286.2326,-0.0262029999999999,-0.01140569,0.0,0 STARLINK-4708,1 53776U 22111D   22299.25001157 -.01140569  00000-0 -26203-1 0  9992,2 53776  53.2173  44.7586 0001278  52.5316 286.2326 15.44815151  7028,6810.058000000001,93.215,432.794,431.05300000000005,0.0
53776.0,STARLINK-4708,PAYLOAD,2022-10-26 14:00:01,15.44016047,0.0001296999999999,53.2173,43.1802,61.0139,332.0692,-0.027486,-0.01162109,0.0,0 STARLINK-4708,1 53776U 22111D   22299.58334491 -.01162109  00000-0 -27486-1 0  9996,2 53776  53.2173  43.1802 0001297  61.0139 332.0692 15.44016047  1309,6812.408,93.263,435.156,433.389,0.0
53776.0,STARLINK-4708,PAYLOAD,2022-10-26 22:00:00,15.43189107,0.000128,53.2172,41.6019,58.5067,27.9304,-0.027744,-0.01142279,0.0,0 STARLINK-4708,1 53776U 22111D   22299.91667824 -.01142279  00000-0 -27744-1 0  9995,2 53776  53.2172  41.6019 0001280  58.5067  27.9304 15.43189107  7138,6814.840999999999,93.313,437.579,435.834,0.0
53776.0,STARLINK-4708,PAYLOAD,2022-10-27 14:00:01,15.41581656,0.0001469,53.2173,38.4519,59.7021,130.5519,-0.030061,-0.01169741,0.0,0 STARLINK-4708,1 53776U 22111D   22300.58335648 -.01169741  00000-0 -30061-1 0  9996,2 53776  53.2173  38.4519 0001469  59.7021 130.5519 15.41581656  7233,6819.578,93.411,442.445,440.441,0.0
53776.0,STARLINK-4708,PAYLOAD,2022-10-27 22:00:00,15.40752395,0.000143,53.2171,36.8793,51.5631,189.0493,-0.030312,-0.01149125,0.0,0 STARLINK-4708,1 53776U 22111D   22300.91667824 -.01149125  00000-0 -30312-1 0  9990,2 53776  53.2171  36.8793 0001430  51.5631 189.0493 15.40752395  1303,6822.024,93.461,444.865,442.914,0.0
53776.0,STARLINK-4708,PAYLOAD,2022-10-28 14:00:01,15.39127385,0.0001374,53.2175,33.7413,57.2798,281.2904,-0.032081,-0.01152017,0.0,0 STARLINK-4708,1 53776U 22111D   22301.58335648 -.01152017  00000-0 -32081-1 0  9999,2 53776  53.2175  33.7413 0001374  57.2798 281.2904 15.39127385  1301,6826.825,93.56,449.628,447.752,0.0
53776.0,STARLINK-4708,PAYLOAD,2022-10-28 22:00:01,15.38306924,0.0001273,53.2174,32.1741,53.0067,333.0479,-0.032651,-0.01142128,0.0,0 STARLINK-4708,1 53776U 22111D   22301.91668981 -.01142128  00000-0 -32651-1 0  9990,2 53776  53.2174  32.1741 0001273  53.0067 333.0479 15.38306924  7449,6829.253000000002,93.609,451.987,450.24800000000016,0.0
53776.0,STARLINK-4708,PAYLOAD,2022-10-29 12:00:00,15.36895217,0.0001334,53.2175,29.4378,49.3639,327.3585,-0.034699,-0.01157573,0.0,0 STARLINK-4708,1 53776U 22111D   22302.50001157 -.01157573  00000-0 -34699-1 0  9996,2 53776  53.2175  29.4378 0001334  49.3639 327.3585 15.36895217  1305,6833.434,93.695,456.211,454.387,0.0
53776.0,STARLINK-4708,PAYLOAD,2022-10-29 22:00:01,15.35874105,0.0001648,53.2172,27.4863,44.4747,118.1517,-0.03572,-0.0115331,0.0,0 STARLINK-4708,1 53776U 22111D   22302.91668981 -.01153310  00000-0 -35720-1 0  9996,2 53776  53.2172  27.4863 0001648  44.4747 118.1517 15.35874105  1306,6836.462,93.758,459.454,457.201,0.0
53776.0,STARLINK-4708,PAYLOAD,2022-10-30 00:00:00,15.35660794,0.0001485,53.2176,27.0961,49.7904,213.7606,-0.035482,-0.01139054,0.0,0 STARLINK-4708,1 53776U 22111D   22303.00001157 -.01139054  00000-0 -35482-1 0  9997,2 53776  53.2176  27.0961 0001485  49.7904 213.7606 15.35660794  7604,6837.095,93.771,459.976,457.945,0.0
53776.0,STARLINK-4708,PAYLOAD,2022-10-30 14:00:01,15.34238017,0.0001488,53.2176,24.372,57.7507,190.9758,-0.037182,-0.0114019,0.0,0 STARLINK-4708,1 53776U 22111D   22303.58334491 -.01140190  00000-0 -37182-1 0  9992,2 53776  53.2176  24.3720 0001488  57.7507 190.9758 15.34238017  1301,6841.321999999999,93.858,464.205,462.169,0.0
53776.0,STARLINK-4708,PAYLOAD,2022-10-30 22:00:01,15.33420992,0.0001534,53.2172,22.8159,44.0839,246.3225,-0.038014,-0.01136115,0.0,0 STARLINK-4708,1 53776U 22111D   22303.91668981 -.01136115  00000-0 -38014-1 0  9990,2 53776  53.2172  22.8159 0001534  44.0839 246.3225 15.33420992  1304,6843.752,93.908,466.666,464.567,0.0
53776.0,STARLINK-4708,PAYLOAD,2022-10-31 14:00:01,15.31798663,0.0001428,53.2174,19.7133,47.2268,323.4068,-0.040288,-0.0114312,0.0,0 STARLINK-4708,1 53776U 22111D   22304.58334491 -.01143120  00000-0 -40288-1 0  9990,2 53776  53.2174  19.7133 0001428  47.2268 323.4068 15.31798663  1309,6848.583000000001,94.007,471.426,469.47,0.0
53776.0,STARLINK-4708,PAYLOAD,2022-10-31 22:00:01,15.30982242,0.0001606,53.2172,18.1628,40.073,9.3069,-0.041199,-0.01139742,0.0,0 STARLINK-4708,1 53776U 22111D   22304.91668981 -.01139742  00000-0 -41199-1 0  9998,2 53776  53.2172  18.1628 0001606  40.0730   9.3069 15.30982242  7902,6851.017,94.057,473.983,471.782,0.0
53776.0,STARLINK-4708,PAYLOAD,2022-11-01 14:00:01,15.29355395,0.0001588999999999,53.2174,15.0719,50.658,73.0836,-0.043336,-0.01139596,0.0,0 STARLINK-4708,1 53776U 22111D   22305.58334491 -.01139596  00000-0 -43336-1 0  9990,2 53776  53.2174  15.0719 0001589  50.6580  73.0836 15.29355395  1300,6855.875,94.157,478.829,476.651,0.0
53776.0,STARLINK-4708,PAYLOAD,2022-11-01 22:00:00,15.28549195,0.0001699,53.2171,13.5271,44.2208,115.2649,-0.044872,-0.01149951,0.0,0 STARLINK-4708,1 53776U 22111D   22305.91667824 -.01149951  00000-0 -44872-1 0  9998,2 53776  53.2171  13.5271 0001699  44.2208 115.2649 15.28549195  8053,6858.286,94.207,481.316,478.985,0.0
53776.0,STARLINK-4708,PAYLOAD,2022-11-02 14:00:01,15.26910202,0.0001727,53.2175,10.4479,46.9143,181.135,-0.046409,-0.01132625,0.0,0 STARLINK-4708,1 53776U 22111D   22306.58334491 -.01132625  00000-0 -46409-1 0  9991,2 53776  53.2175  10.4479 0001727  46.9143 181.1350 15.26910202  1303,6863.191999999999,94.308,486.24300000000005,483.872,0.0
53776.0,STARLINK-4708,PAYLOAD,2022-11-02 22:00:00,15.26099598,0.0001453,53.2175,8.9087,56.9572,203.9052,-0.0478149999999999,-0.01153065,0.0,0 STARLINK-4708,1 53776U 22111D   22306.91667824 -.01153065  00000-0 -47815-1 0  9990,2 53776  53.2175   8.9087 0001453  56.9572 203.9052 15.26099598  8207,6865.623000000001,94.358,488.485,486.49,0.0
53776.0,STARLINK-4708,PAYLOAD,2022-11-03 14:00:01,15.24483109,0.00015,53.2172,5.8407,53.5063,270.0422,-0.050888,-0.01167469,0.0,0 STARLINK-4708,1 53776U 22111D   22307.58334491 -.01167469  00000-0 -50888-1 0  9992,2 53776  53.2172   5.8407 0001500  53.5063 270.0422 15.24483109  1300,6870.475,94.458,493.371,491.309,0.0
53776.0,STARLINK-4708,PAYLOAD,2022-11-03 22:00:00,15.23657448,0.0001333,53.2175,4.3074,52.7881,300.647,-0.0514059999999999,-0.0115175,0.0,0 STARLINK-4708,1 53776U 22111D   22307.91667824 -.01151750  00000-0 -51406-1 0  9991,2 53776  53.2175   4.3074 0001333  52.7881 300.6470 15.23657448  8364,6872.956999999999,94.509,495.73800000000006,493.906,0.0
53776.0,STARLINK-4708,PAYLOAD,2022-11-04 14:00:01,15.220272199999998,0.00015,53.2174,1.2511,47.0299,3.2307,-0.053713,-0.01146835,0.0,0 STARLINK-4708,1 53776U 22111D   22308.58334491 -.01146835  00000-0 -53713-1 0  9997,2 53776  53.2174   1.2511 0001500  47.0299   3.2307 15.22027220  1301,6877.864000000001,94.611,500.76,498.697,0.0
53776.0,STARLINK-4708,PAYLOAD,2022-11-04 22:00:01,15.21231631,0.0001803,53.2173,359.7231,38.9875,38.2753,-0.056357,-0.01173153,0.0,0 STARLINK-4708,1 53776U 22111D   22308.91668981 -.01173153  00000-0 -56357-1 0  9998,2 53776  53.2173 359.7231 0001803  38.9875  38.2753 15.21231631  8510,6880.261,94.66,503.367,500.886,0.0
